{"spkid": "50520781", "covariance": {"epoch": "2456524.5", "labels": ["e", "q", "tp", "node", "peri", "i"], "data": [["2.356543284249006E-13", "-1.84512799279013E-13", "3.26278946573527E-11", "-3.982907555312177E-11", "1.564102125605433E-11", "1.747526380119301E-11"], ["-1.84512799279013E-13", "1.445873974471829E-13", "-2.606134478002985E-11", "3.076085838445738E-11", "-1.266262682623169E-11", "-1.349501072569247E-11"], ["3.26278946573527E-11", "-2.606134478002985E-11", "8.337275078290769E-9", "-3.301643598905047E-9", "5.475130300933843E-9", "1.395301463332515E-9"], ["-3.982907555312177E-11", "3.076085838445738E-11", "-3.301643598905047E-9", "3.381221768509287E-8", "-2.596010745186441E-8", "-6.73160710115435E-9"], ["1.564102125605433E-11", "-1.266262682623169E-11", "5.475130300933843E-9", "-2.596010745186441E-8", "2.913229183017512E-8", "3.214735409524717E-9"], ["1.747526380119301E-11", "-1.349501072569247E-11", "1.395301463332515E-9", "-6.73160710115435E-9", "3.214735409524717E-9", "2.08335082728175E-9"]], "elements": [{"units": null, "value": ".3006524295306665", "title": "eccentricity", "name": "e", "sigma": 4.854424048483e-07, "label": "e"}, {"label": "q", "units": "au", "title": "perihelion distance", "value": ".5598116182128804", "sigma": 3.80246495640897e-07, "name": "q"}, {"label": "tp", "units": "TDB", "title": "time of perihelion passage", "value": "2456508.423937974253", "sigma": 9.13086801913749e-05, "name": "tp"}, {"name": "om", "sigma": 0.000183880987829337, "units": "deg", "value": "51.64004833597076", "title": "longitude of the ascending node", "label": "node"}, {"units": "deg", "value": "353.0006738834534", "title": "argument of perihelion", "sigma": 0.000170681843879702, "name": "w", "label": "peri"}, {"label": "i", "sigma": 4.56437380949649e-05, "name": "i", "title": "inclination", "value": "3.364636905136955", "units": "deg"}]}, "elements": [{"sigma": "4.8713E-7", "name": "e", "title": "eccentricity", "value": ".3004291843917836", "units": null, "label": "e"}, {"label": "a", "sigma": "2.1394E-8", "name": "a", "units": "au", "title": "semi-major axis", "value": ".8013975507449028"}, {"sigma": "4.0523E-7", "name": "q", "units": "au", "title": "perihelion distance", "value": ".5606343382010387", "label": "q"}, {"sigma": "4.5618E-5", "name": "i", "units": "deg", "value": "3.36394947260039", "title": "inclination; angle with respect to x-y ecliptic plane", "label": "i"}, {"label": "node", "units": "deg", "title": "longitude of the ascending node", "value": "51.55944849578558", "name": "om", "sigma": ".00018459"}, {"units": "deg", "title": "argument of perihelion", "value": "352.9633532922486", "name": "w", "sigma": ".00017234", "label": "peri"}, {"name": "ma", "sigma": ".00010969", "title": "mean anomaly", "value": "331.6372156333672", "units": "deg", "label": "M"}, {"label": "tp", "name": "tp", "sigma": "7.9223E-5", "value": "2461221.145091188157", "title": "time of perihelion passage", "units": "TDB"}, {"units": "d", "title": "sidereal orbital period", "value": "262.0417209983083", "name": "per", "sigma": "1.0493E-5", "label": "period"}, {"label": "n", "sigma": "5.5013E-8", "name": "n", "title": "mean motion", "value": "1.373827032689669", "units": "deg/d"}, {"label": "Q", "name": "ad", "sigma": "2.7821E-8", "units": "au", "value": "1.042160763288767", "title": "aphelion distance"}], "epoch": "2461200.5"}